{"type": "FeatureCollection", "features": [{"type": "Feature", "geometry": {"type": "Polygon", "coordinates": [[[-122.01825568645835, 37.30662942915931], [-122.01828138097042, 37.30648719107577], [-122.01838148383578, 37.30649872921402], [-122.01837578851689, 37.306530251873134], [-122.01841717659696, 37.306535022749316], [-122.01840717744953, 37.30659038118201], [-122.01845722798392, 37.306596149528936], [-122.01844722793815, 37.30665150791658], [-122.01825568645835, 37.30662942915931]]]}, "properties": {"OBJECTID": 295562, "Base_Heigh": 246.61, "Building_H": 275.39, "Shape_Leng": 217.223241274, "Shape_Length": 83.31252475440276, "Shape_Area": 343.38903012993865, "Class": null, "Shape_Length_StatePlane": 217.22327414011642, "Shape_Area_StatePlane": 2334.0819791472236}}]}