{"type": "FeatureCollection", "features": [{"type": "Feature", "geometry": {"type": "Polygon", "coordinates": [[[-122.01820046773855, 37.30662609710942], [-122.01823269598488, 37.30648086612039], [-122.01857374014034, 37.30651602781815], [-122.01854566534966, 37.30666930858142], [-122.01820046773855, 37.30662609710942]]]}, "properties": {"OBJECTID": 40775, "PARCELID": "21585", "INTID": 21585, "APN": "37329056", "LOTNUM": "150", "PARCELTYPE": "Tax", "FEATURECLASS": "Parcel", "PLANCRT": "T-2007", "PLANMOD": null, "LASTUPDATE": 1130242905000, "NOTES": null, "COVERED": null, "SHAPE_Length": 311.7456509786518, "SHAPE_Area": 5553.172607866504, "CREATIONDATE": -2208988800000}}]}